INTELSAT 902 (IS-902)   
1 26900U 01039A   26181.50527403 -.00000277  00000+0  00000+0 0  9999
2 26900   6.1497  71.6208 0004210  28.0626 310.6671  1.00270084 90826
INTELSAT 904 (IS-904)   
1 27380U 02007A   26182.00796248 -.00000220  00000+0  00000+0 0  9997
2 27380   6.9525  69.0196 0006383  14.6489 166.7873  1.00271966 51907
DIRECTV 5 (TEMPO 1)     
1 27426U 02023A   26182.18169632 -.00000050  00000+0  00000+0 0  9997
2 27426   4.9116  75.1401 0003553  32.5313 126.8727  1.00271759 88264
INTELSAT 905 (IS-905)   
1 27438U 02027A   26181.77324398  .00000099  00000+0  00000+0 0  9992
2 27438   6.7857  69.6375 0004048  31.2679 319.0932  1.00271993 51497
GALAXY 3C (G-3C)        
1 27445U 02030A   26181.59529704 -.00000145  00000+0  00000+0 0  9995
2 27445   3.7656  77.8074 0001970  27.2183 293.1133  1.00272227 46627
INTELSAT 906 (IS-906)   
1 27513U 02041A   26182.16954230  .00000019  00000+0  00000+0 0  9992
2 27513   5.8372  72.7492 0004125  11.5719 320.0914  1.00273045 87165
GALAXY 13 (HORIZONS-1)  
1 27954U 03044A   26182.19322630  .00000142  00000+0  00000+0 0  9998
2 27954   1.4547  83.6861 0001690  11.6082 103.4882  1.00271648 46719
INTELSAT 10-02          
1 28358U 04022A   26181.94273499  .00000000  00000+0  00000+0 0  9997
2 28358   0.0358 272.5237 0000244 243.8402 101.0248  1.00272440 80694
DIRECTV 8               
1 28659U 05019A   26182.16919867  .00000000  00000+0  00000+0 0  9999
2 28659   0.0197  17.9624 0003357  91.3936 111.7395  1.00270632 77212
GALAXY 28 (G-28)        
1 28702U 05022A   26182.11561485 -.00000192  00000+0  00000+0 0  9999
2 28702   3.3329  78.7684 0002584  14.8910 200.0371  1.00270724 52118
GALAXY 16 (G-16)        
1 29236U 06023A   26182.16746686 -.00000117  00000+0  00000+0 0  9994
2 29236   0.0090  97.7640 0002736 357.0254 145.7274  1.00273038 73116
DIRECTV 9S              
1 29494U 06043A   26182.16361457 -.00000105  00000+0  00000+0 0  9998
2 29494   2.4550  80.7446 0005423  22.5816 133.5963  1.00271753 51522
GALAXY 17 (G-17)        
1 31307U 07016B   26182.13999669 -.00000198  00000+0  00000+0 0  9996
2 31307   3.0052  79.7325 0004058  18.9717 145.8835  1.00271663 69947
INTELSAT 11 (IS-11)     
1 32253U 07044B   26182.16954230  .00000091  00000+0  00000+0 0  9997
2 32253   3.5999  78.5074 0003373  87.3032 238.7462  0.99047802 68580
HORIZONS-2              
1 32388U 07063B   26182.19436256 -.00000245  00000+0  00000+0 0  9995
2 32388   2.6363  80.4626 0004106  11.3403 183.5985  1.00269817 67955
DIRECTV 11              
1 32729U 08013A   26181.59747535 -.00000115  00000+0  00000+0 0  9994
2 32729   0.0118 261.6721 0000347 164.8959 328.0030  1.00269308 45729
GALAXY 18 (G-18)        
1 32951U 08024A   26182.21086374  .00000036  00000+0  00000+0 0  9991
2 32951   0.0180  36.4655 0003209  67.8676 127.8427  1.00271897 45997
GALAXY 19 (G-19)        
1 33376U 08045A   26182.18435743 -.00000129  00000+0  00000+0 0  9994
2 33376   0.0529 253.4083 0002940 220.5426 134.6562  1.00271803 65045
FM-5                    
1 35493U 09034A   26182.20530882 -.00000189  00000+0  00000+0 0  9994
2 35493   0.0342 278.8768 0000838  69.6332 278.4975  1.00270133 46783
INTELSAT 14 (IS-14)     
1 36097U 09064A   26182.14787553 -.00000263  00000+0  00000+0 0  9993
2 36097   0.0263 290.8092 0002747 171.6366 184.9927  1.00270230 60740
INTELSAT 15 (IS-15)     
1 36106U 09067A   26182.03113479 -.00000174  00000+0  00000+0 0  9996
2 36106   0.0123 318.0060 0002677 145.5028 271.9187  1.00268951 41360
DIRECTV 12              
1 36131U 09075A   26181.59817875 -.00000093  00000+0  00000+0 0  9994
2 36131   0.0173 192.7565 0000490 284.2288 274.3004  1.00273225 46685
INTELSAT 16 (IS-16)     
1 36397U 10006A   26182.14173101 -.00000234  00000+0  00000+0 0  9990
2 36397   0.0106  28.0527 0002563  90.7486 135.2161  1.00270521 59798
XM-5                    
1 37185U 10053A   26182.21086374 -.00000012  00000+0  00000+0 0  9995
2 37185   0.0685 268.7155 0002651 284.8580  46.4033  1.00269979 57621
INTELSAT 17 (IS-17)     
1 37238U 10065B   26182.16988897  .00000009  00000+0  00000+0 0  9997
2 37238   0.0116 114.7446 0002679 357.8407 293.7898  1.00270395 53380
INTELSAT 28 (IS-28)     
1 37392U 11016A   26182.07559463 -.00000216  00000+0  00000+0 0  9999
2 37392   1.8403  82.4631 0004021  17.1803 174.9610  1.00270400 53429
INTELSAT 18 (IS-18)     
1 37834U 11056A   26182.12119800  .00000000  00000+0  00000+0 0  9997
2 37834   0.0227  24.9793 0002084  82.4550  35.3776  1.00269543 53953
INTELSAT 22 (IS-22)     
1 38098U 12011A   26182.17110233  .00000000  00000+0  00000+0 0  9998
2 38098   0.0489  67.4144 0001729  44.0395 301.4730  1.00270541  7321
INTELSAT 19 (IS-19)     
1 38356U 12030A   26182.19141894 -.00000046  00000+0  00000+0 0  9996
2 38356   0.0180  24.0637 0003408  84.4354  45.6596  1.00271581 50590
INTELSAT 20 (IS-20)     
1 38740U 12043A   26181.93725450  .00000000  00000+0  00000+0 0  9993
2 38740   0.0436  75.9415 0002202 109.6201 139.3398  1.00270880 50886
INTELSAT 21 (IS-21)     
1 38749U 12045A   26182.03325037 -.00000274  00000+0  00000+0 0  9997
2 38749   0.0325 277.5819 0001918 191.6392 123.8387  1.00273565 50660
